[{"OBJECT_NAME":"FALCONSAT-10","OBJECT_ID":"2023-174AM","EPOCH":"2026-03-09T16:51:34.085376","MEAN_MOTION":15.26670596,"ECCENTRICITY":0.00089318,"INCLINATION":97.3865,"RA_OF_ASC_NODE":145.7938,"ARG_OF_PERICENTER":169.5942,"MEAN_ANOMALY":190.5483,"EPHEMERIS_TYPE":0,"CLASSIFICATION_TYPE":"U","NORAD_CAT_ID":58291,"ELEMENT_SET_NO":999,"REV_AT_EPOCH":12958,"BSTAR":0.00025968794,"MEAN_MOTION_DOT":6.748e-5,"MEAN_MOTION_DDOT":0},{"OBJECT_NAME":"STARLINK-30844","OBJECT_ID":"2023-180B","EPOCH":"2026-03-09T22:59:53.948256","MEAN_MOTION":15.27435532,"ECCENTRICITY":0.00020225,"INCLINATION":43.0027,"RA_OF_ASC_NODE":51.3331,"ARG_OF_PERICENTER":281.5481,"MEAN_ANOMALY":78.5143,"EPHEMERIS_TYPE":0,"CLASSIFICATION_TYPE":"U","NORAD_CAT_ID":58403,"ELEMENT_SET_NO":999,"REV_AT_EPOCH":12754,"BSTAR":0.0044836847,"MEAN_MOTION_DOT":0.00124673,"MEAN_MOTION_DDOT":0}]
